{
  "type": "FeatureCollection",
  "features": [
    {
      "type": "Feature",
      "properties": {
        "norad_id": 54741,
        "name": "GALAXY 35 (G-35)",
        "group": "intelsat",
        "lat": 0.012552050241532916,
        "lon": 84.682980219834,
        "alt_km": 35796.1297719898,
        "timestamp": "2025-12-26T05:31:12.167931+00:00",
        "meta_object_name": "GALAXY 35 (G-35)",
        "meta_object_id": "2022-170A",
        "meta_epoch": "2025-12-25T21:10:55.542720",
        "meta_mean_motion": 1.00270925,
        "meta_eccentricity": 0.00023613,
        "meta_inclination": 0.0228,
        "meta_ra_of_asc_node": 256.929,
        "meta_arg_of_pericenter": 19.3758,
        "meta_mean_anomaly": 42.9691,
        "meta_ephemeris_type": 0,
        "meta_classification_type": "U",
        "meta_norad_cat_id": 54741,
        "meta_element_set_no": 999,
        "meta_rev_at_epoch": 1115,
        "meta_bstar": 0,
        "meta_mean_motion_dot": -1.41e-06,
        "meta_mean_motion_ddot": 0,
        "tle_line1": "1 54741U 22170A   25359.88258730 -.00000141  00000+0  00000+0 0  9993",
        "tle_line2": "2 54741   0.0228 256.9290 0002361  19.3758  42.9691  1.00270925 11158"
      },
      "geometry": {
        "type": "Point",
        "coordinates": [
          84.682980219834,
          0.012552050241532916
        ]
      }
    },
    {
      "type": "Feature",
      "properties": {
        "norad_id": 54742,
        "name": "GALAXY 36 (G-36)",
        "group": "intelsat",
        "lat": 0.013907093077934368,
        "lon": 88.7851824004997,
        "alt_km": 35786.41216522016,
        "timestamp": "2025-12-26T05:31:12.167943+00:00",
        "meta_object_name": "GALAXY 36 (G-36)",
        "meta_object_id": "2022-170B",
        "meta_epoch": "2025-12-25T00:45:14.126400",
        "meta_mean_motion": 1.00272273,
        "meta_eccentricity": 3.465e-05,
        "meta_inclination": 0.0122,
        "meta_ra_of_asc_node": 82.1613,
        "meta_arg_of_pericenter": 260.7471,
        "meta_mean_anomaly": 33.2048,
        "meta_ephemeris_type": 0,
        "meta_classification_type": "U",
        "meta_norad_cat_id": 54742,
        "meta_element_set_no": 999,
        "meta_rev_at_epoch": 1102,
        "meta_bstar": 0,
        "meta_mean_motion_dot": -1.64e-06,
        "meta_mean_motion_ddot": 0,
        "tle_line1": "1 54742U 22170B   25359.03141350 -.00000164  00000+0  00000+0 0  9995",
        "tle_line2": "2 54742   0.0122  82.1613 0000346 260.7471  33.2048  1.00272273 11028"
      },
      "geometry": {
        "type": "Point",
        "coordinates": [
          88.7851824004997,
          0.013907093077934368
        ]
      }
    },
    {
      "type": "Feature",
      "properties": {
        "norad_id": 57493,
        "name": "GALAXY 37 (G-37)",
        "group": "intelsat",
        "lat": 0.016320802714158374,
        "lon": 50.78221424288398,
        "alt_km": 35792.1507115944,
        "timestamp": "2025-12-26T05:31:12.167954+00:00",
        "meta_object_name": "GALAXY 37 (G-37)",
        "meta_object_id": "2023-112A",
        "meta_epoch": "2025-12-25T14:10:28.303968",
        "meta_mean_motion": 1.00271761,
        "meta_eccentricity": 0.0002126,
        "meta_inclination": 0.0125,
        "meta_ra_of_asc_node": 25.9984,
        "meta_arg_of_pericenter": 252.027,
        "meta_mean_anomaly": 261.9326,
        "meta_ephemeris_type": 0,
        "meta_classification_type": "U",
        "meta_norad_cat_id": 57493,
        "meta_element_set_no": 999,
        "meta_rev_at_epoch": 880,
        "meta_bstar": 0,
        "meta_mean_motion_dot": 6.9e-07,
        "meta_mean_motion_ddot": 0,
        "tle_line1": "1 57493U 23112A   25359.59060537  .00000069  00000+0  00000+0 0  9999",
        "tle_line2": "2 57493   0.0125  25.9984 0002126 252.0270 261.9326  1.00271761  8804"
      },
      "geometry": {
        "type": "Point",
        "coordinates": [
          50.78221424288398,
          0.016320802714158374
        ]
      }
    }
  ]
}